[{"OBJECT_NAME":"ONEWEB-0651","OBJECT_ID":"2023-043AL","EPOCH":"2026-01-24T05:16:40.429632","MEAN_MOTION":13.15550179,"ECCENTRICITY":0.00018637,"INCLINATION":87.9001,"RA_OF_ASC_NODE":287.9657,"ARG_OF_PERICENTER":73.4655,"MEAN_ANOMALY":286.668,"EPHEMERIS_TYPE":0,"CLASSIFICATION_TYPE":"U","NORAD_CAT_ID":56080,"ELEMENT_SET_NO":999,"REV_AT_EPOCH":13869,"BSTAR":-0.00029423337,"MEAN_MOTION_DOT":-9.8e-7,"MEAN_MOTION_DDOT":0},{"OBJECT_NAME":"ONEWEB-0718","OBJECT_ID":"2023-043AM","EPOCH":"2026-01-24T05:09:49.534560","MEAN_MOTION":13.15549028,"ECCENTRICITY":0.00016011,"INCLINATION":87.8999,"RA_OF_ASC_NODE":287.947,"ARG_OF_PERICENTER":96.2632,"MEAN_ANOMALY":263.8681,"EPHEMERIS_TYPE":0,"CLASSIFICATION_TYPE":"U","NORAD_CAT_ID":56081,"ELEMENT_SET_NO":999,"REV_AT_EPOCH":13750,"BSTAR":-7.7841752e-5,"MEAN_MOTION_DOT":-1.6e-7,"MEAN_MOTION_DDOT":0},{"OBJECT_NAME":"ONEWEB-0561","OBJECT_ID":"2023-068A","EPOCH":"2026-01-24T04:25:07.142016","MEAN_MOTION":13.20773716,"ECCENTRICITY":0.00018445,"INCLINATION":87.9218,"RA_OF_ASC_NODE":303.1795,"ARG_OF_PERICENTER":63.0547,"MEAN_ANOMALY":297.0774,"EPHEMERIS_TYPE":0,"CLASSIFICATION_TYPE":"U","NORAD_CAT_ID":56710,"ELEMENT_SET_NO":999,"REV_AT_EPOCH":13049,"BSTAR":0.00031546624,"MEAN_MOTION_DOT":1.41e-6,"MEAN_MOTION_DDOT":0},{"OBJECT_NAME":"ONEWEB-0668","OBJECT_ID":"2023-068B","EPOCH":"2026-01-24T04:28:49.477728","MEAN_MOTION":13.16596446,"ECCENTRICITY":0.00018444,"INCLINATION":87.9031,"RA_OF_ASC_NODE":257.4299,"ARG_OF_PERICENTER":96.4777,"MEAN_ANOMALY":263.6564,"EPHEMERIS_TYPE":0,"CLASSIFICATION_TYPE":"U","NORAD_CAT_ID":56711,"ELEMENT_SET_NO":999,"REV_AT_EPOCH":13283,"BSTAR":0.000174288,"MEAN_MOTION_DOT":7.9e-7,"MEAN_MOTION_DDOT":0},{"OBJECT_NAME":"ONEWEB-0676","OBJECT_ID":"2023-068C","EPOCH":"2026-01-24T04:40:13.620576","MEAN_MOTION":13.16594648,"ECCENTRICITY":0.0001697,"INCLINATION":87.9018,"RA_OF_ASC_NODE":257.4455,"ARG_OF_PERICENTER":72.5383,"MEAN_ANOMALY":287.5934,"EPHEMERIS_TYPE":0,"CLASSIFICATION_TYPE":"U","NORAD_CAT_ID":56712,"ELEMENT_SET_NO":999,"REV_AT_EPOCH":13275,"BSTAR":4.561779e-5,"MEAN_MOTION_DOT":3.0e-7,"MEAN_MOTION_DDOT":0},{"OBJECT_NAME":"ONEWEB-0677","OBJECT_ID":"2023-068D","EPOCH":"2026-01-24T05:58:18.105888","MEAN_MOTION":13.20773357,"ECCENTRICITY":0.00018526,"INCLINATION":87.9234,"RA_OF_ASC_NODE":303.1547,"ARG_OF_PERICENTER":77.1032,"MEAN_ANOMALY":283.0308,"EPHEMERIS_TYPE":0,"CLASSIFICATION_TYPE":"U","NORAD_CAT_ID":56713,"ELEMENT_SET_NO":999,"REV_AT_EPOCH":13080,"BSTAR":0.00024781108,"MEAN_MOTION_DOT":1.14e-6,"MEAN_MOTION_DDOT":0},{"OBJECT_NAME":"ONEWEB-0678","OBJECT_ID":"2023-068E","EPOCH":"2026-01-24T04:24:10.932768","MEAN_MOTION":13.15550812,"ECCENTRICITY":0.00013638,"INCLINATION":87.9007,"RA_OF_ASC_NODE":287.932,"ARG_OF_PERICENTER":66.3694,"MEAN_ANOMALY":293.758,"EPHEMERIS_TYPE":0,"CLASSIFICATION_TYPE":"U","NORAD_CAT_ID":56714,"ELEMENT_SET_NO":999,"REV_AT_EPOCH":13035,"BSTAR":0.00051027124,"MEAN_MOTION_DOT":2.05e-6,"MEAN_MOTION_DDOT":0},{"OBJECT_NAME":"ONEWEB-0679","OBJECT_ID":"2023-068F","EPOCH":"2026-01-24T01:51:31.376736","MEAN_MOTION":13.1659537,"ECCENTRICITY":0.00020637,"INCLINATION":87.9015,"RA_OF_ASC_NODE":257.4517,"ARG_OF_PERICENTER":84.7866,"MEAN_ANOMALY":275.35,"EPHEMERIS_TYPE":0,"CLASSIFICATION_TYPE":"U","NORAD_CAT_ID":56715,"ELEMENT_SET_NO":999,"REV_AT_EPOCH":13276,"BSTAR":0.0002986308,"MEAN_MOTION_DOT":1.27e-6,"MEAN_MOTION_DDOT":0},{"OBJECT_NAME":"ONEWEB-0680","OBJECT_ID":"2023-068G","EPOCH":"2026-01-24T04:44:51.031104","MEAN_MOTION":13.21826649,"ECCENTRICITY":0.00020506,"INCLINATION":87.9211,"RA_OF_ASC_NODE":272.6856,"ARG_OF_PERICENTER":91.7053,"MEAN_ANOMALY":268.4316,"EPHEMERIS_TYPE":0,"CLASSIFICATION_TYPE":"U","NORAD_CAT_ID":56716,"ELEMENT_SET_NO":999,"REV_AT_EPOCH":13207,"BSTAR":-5.428714e-6,"MEAN_MOTION_DOT":1.1e-7,"MEAN_MOTION_DDOT":0},{"OBJECT_NAME":"ONEWEB-0681","OBJECT_ID":"2023-068H","EPOCH":"2026-01-24T04:15:13.633632","MEAN_MOTION":13.21825558,"ECCENTRICITY":0.00023146,"INCLINATION":87.9204,"RA_OF_ASC_NODE":272.7017,"ARG_OF_PERICENTER":57.2404,"MEAN_ANOMALY":302.8953,"EPHEMERIS_TYPE":0,"CLASSIFICATION_TYPE":"U","NORAD_CAT_ID":56717,"ELEMENT_SET_NO":999,"REV_AT_EPOCH":13206,"BSTAR":0.00017778342,"MEAN_MOTION_DOT":8.6e-7,"MEAN_MOTION_DDOT":0},{"OBJECT_NAME":"ONEWEB-0682","OBJECT_ID":"2023-068J","EPOCH":"2026-01-24T05:01:49.356192","MEAN_MOTION":13.15546958,"ECCENTRICITY":0.00019944,"INCLINATION":87.8999,"RA_OF_ASC_NODE":287.9373,"ARG_OF_PERICENTER":85.99,"MEAN_ANOMALY":274.1459,"EPHEMERIS_TYPE":0,"CLASSIFICATION_TYPE":"U","NORAD_CAT_ID":56718,"ELEMENT_SET_NO":999,"REV_AT_EPOCH":13052,"BSTAR":-0.00021126852,"MEAN_MOTION_DOT":-6.7e-7,"MEAN_MOTION_DDOT":0},{"OBJECT_NAME":"ONEWEB-0683","OBJECT_ID":"2023-068K","EPOCH":"2026-01-24T05:32:38.443200","MEAN_MOTION":13.15550172,"ECCENTRICITY":0.00017336,"INCLINATION":87.901,"RA_OF_ASC_NODE":287.9215,"ARG_OF_PERICENTER":84.2421,"MEAN_ANOMALY":275.8907,"EPHEMERIS_TYPE":0,"CLASSIFICATION_TYPE":"U","NORAD_CAT_ID":56719,"ELEMENT_SET_NO":999,"REV_AT_EPOCH":13049,"BSTAR":0.00010200409,"MEAN_MOTION_DOT":5.1e-7,"MEAN_MOTION_DDOT":0},{"OBJECT_NAME":"ONEWEB-0684","OBJECT_ID":"2023-068L","EPOCH":"2026-01-24T05:44:02.412384","MEAN_MOTION":13.15547662,"ECCENTRICITY":2.361e-5,"INCLINATION":87.9004,"RA_OF_ASC_NODE":287.9135,"ARG_OF_PERICENTER":50.2942,"MEAN_ANOMALY":309.8209,"EPHEMERIS_TYPE":0,"CLASSIFICATION_TYPE":"U","NORAD_CAT_ID":56720,"ELEMENT_SET_NO":999,"REV_AT_EPOCH":13032,"BSTAR":0.00031424143,"MEAN_MOTION_DOT":1.31e-6,"MEAN_MOTION_DDOT":0},{"OBJECT_NAME":"ONEWEB-0686","OBJECT_ID":"2023-068M","EPOCH":"2026-01-24T04:35:13.415136","MEAN_MOTION":13.17181549,"ECCENTRICITY":0.00014612,"INCLINATION":87.9008,"RA_OF_ASC_NODE":257.4751,"ARG_OF_PERICENTER":94.887,"MEAN_ANOMALY":265.2428,"EPHEMERIS_TYPE":0,"CLASSIFICATION_TYPE":"U","NORAD_CAT_ID":56721,"ELEMENT_SET_NO":999,"REV_AT_EPOCH":13276,"BSTAR":3.9593434e-5,"MEAN_MOTION_DOT":2.8e-7,"MEAN_MOTION_DDOT":0},{"OBJECT_NAME":"ONEWEB-0694","OBJECT_ID":"2023-068N","EPOCH":"2026-01-24T04:42:30.237120","MEAN_MOTION":13.16594417,"ECCENTRICITY":0.000181,"INCLINATION":87.9028,"RA_OF_ASC_NODE":257.4108,"ARG_OF_PERICENTER":94.1026,"MEAN_ANOMALY":266.0312,"EPHEMERIS_TYPE":0,"CLASSIFICATION_TYPE":"U","NORAD_CAT_ID":56722,"ELEMENT_SET_NO":999,"REV_AT_EPOCH":13282,"BSTAR":7.1949345e-5,"MEAN_MOTION_DOT":4.0e-7,"MEAN_MOTION_DDOT":0},{"OBJECT_NAME":"ONEWEB-0696","OBJECT_ID":"2023-068P","EPOCH":"2026-01-24T04:42:25.684704","MEAN_MOTION":13.15547839,"ECCENTRICITY":0.00011882,"INCLINATION":87.8997,"RA_OF_ASC_NODE":287.9713,"ARG_OF_PERICENTER":64.7471,"MEAN_ANOMALY":295.3783,"EPHEMERIS_TYPE":0,"CLASSIFICATION_TYPE":"U","NORAD_CAT_ID":56723,"ELEMENT_SET_NO":999,"REV_AT_EPOCH":13043,"BSTAR":0.00026617582,"MEAN_MOTION_DOT":1.13e-6,"MEAN_MOTION_DDOT":0},{"OBJECT_NAME":"ONEWEB-0703","OBJECT_ID":"2023-068Q","EPOCH":"2026-01-24T04:56:08.383776","MEAN_MOTION":13.15549465,"ECCENTRICITY":0.00014816,"INCLINATION":87.8995,"RA_OF_ASC_NODE":287.9508,"ARG_OF_PERICENTER":37.4634,"MEAN_ANOMALY":322.6599,"EPHEMERIS_TYPE":0,"CLASSIFICATION_TYPE":"U","NORAD_CAT_ID":56724,"ELEMENT_SET_NO":999,"REV_AT_EPOCH":13032,"BSTAR":-3.5438566e-5,"MEAN_MOTION_DOT":-1.0e-8,"MEAN_MOTION_DDOT":0}]
