ONEWEB-0651             
1 56080U 23043AL  26024.21991238 -.00000098  00000+0 -29423-3 0  9991
2 56080  87.9001 287.9657 0001863  73.4655 286.6680 13.15550179138698
ONEWEB-0718             
1 56081U 23043AM  26024.21515665 -.00000016  00000+0 -77842-4 0  9997
2 56081  87.8999 287.9470 0001601  96.2632 263.8681 13.15549028137503
ONEWEB-0561             
1 56710U 23068A   26024.18411044  .00000141  00000+0  31547-3 0  9993
2 56710  87.9218 303.1795 0001844  63.0547 297.0774 13.20773716130496
ONEWEB-0668             
1 56711U 23068B   26024.18668377  .00000079  00000+0  17429-3 0  9990
2 56711  87.9031 257.4299 0001844  96.4777 263.6564 13.16596446132839
ONEWEB-0676             
1 56712U 23068C   26024.19460209  .00000030  00000+0  45618-4 0  9995
2 56712  87.9018 257.4455 0001697  72.5383 287.5934 13.16594648132752
ONEWEB-0677             
1 56713U 23068D   26024.24882067  .00000114  00000+0  24781-3 0  9992
2 56713  87.9234 303.1547 0001852  77.1032 283.0308 13.20773357130800
ONEWEB-0678             
1 56714U 23068E   26024.18345987  .00000205  00000+0  51027-3 0  9995
2 56714  87.9007 287.9320 0001363  66.3694 293.7580 13.15550812130351
ONEWEB-0679             
1 56715U 23068F   26024.07744649  .00000127  00000+0  29863-3 0  9998
2 56715  87.9015 257.4517 0002063  84.7866 275.3500 13.16595370132768
ONEWEB-0680             
1 56716U 23068G   26024.19781286  .00000011  00000+0 -54287-5 0  9993
2 56716  87.9211 272.6856 0002050  91.7053 268.4316 13.21826649132078
ONEWEB-0681             
1 56717U 23068H   26024.17724113  .00000086  00000+0  17778-3 0  9991
2 56717  87.9204 272.7017 0002314  57.2404 302.8953 13.21825558132068
ONEWEB-0682             
1 56718U 23068J   26024.20959903 -.00000067  00000+0 -21127-3 0  9997
2 56718  87.8999 287.9373 0001994  85.9900 274.1459 13.15546958130522
ONEWEB-0683             
1 56719U 23068K   26024.23100050  .00000051  00000+0  10200-3 0  9993
2 56719  87.9010 287.9215 0001733  84.2421 275.8907 13.15550172130499
ONEWEB-0684             
1 56720U 23068L   26024.23891681  .00000131  00000+0  31424-3 0  9992
2 56720  87.9004 287.9135 0000236  50.2942 309.8209 13.15547662130328
ONEWEB-0686             
1 56721U 23068M   26024.19112749  .00000028  00000+0  39593-4 0  9990
2 56721  87.9008 257.4751 0001461  94.8870 265.2428 13.17181549132762
ONEWEB-0694             
1 56722U 23068N   26024.19618330  .00000040  00000+0  71949-4 0  9993
2 56722  87.9028 257.4108 0001810  94.1026 266.0312 13.16594417132824
ONEWEB-0696             
1 56723U 23068P   26024.19613061  .00000113  00000+0  26618-3 0  9993
2 56723  87.8997 287.9713 0001188  64.7471 295.3783 13.15547839130431
ONEWEB-0703             
1 56724U 23068Q   26024.20565259 -.00000001  00000+0 -35439-4 0  9991
2 56724  87.8995 287.9508 0001481  37.4634 322.6599 13.15549465130320
